From: horizons@ssd.jpl.nasa.gov (Horizons Ephemeris System)
Subject: [Horizons] SMALL BODY #C(500@10)_T(273P/Pons-Gambart) (1/1)
Date: February 23, 2021 at 4:21:10 PM PST

Automated mail xmit by MAIL_REQUEST, PID= 22901 Tue Feb 23 16:21:10 2021
++++++++++++++++++++++++++++++++ (part 1 of 1)  +++++++++++++++++++++++++++++++
*******************************************************************************
JPL/HORIZONS                  273P/Pons-Gambart            2021-Feb-23 16:21:09
Rec #:90001187 (+COV) Soln.date: 2020-Nov-11_11:13:02   # obs: 1140 (1827-2014)

IAU76/J2000 helio. ecliptic osc. elements (au, days, deg., period=Julian yrs):

 EPOCH=  2456369.5 ! 2013-Mar-18.0000000 (TDB)    RMSW= n.a.
  EC= .975324363735136    QR= .8101589837411138   TP= 2456281.1708812034
  OM= 320.431171565636    W= 20.19191150127465    IN= 136.3960312451835
  A= 32.83234422184729    MA= .462759276209065    ADIST= 64.85452945995347
  PER= 188.13129843337    N= .005239034           ANGMOM= .021761347
  DAN= .83551             DDN= 18.91251           L= 305.5188483
  B= 13.7714969           MOID= .17182299         TP= 2012-Dec-19.6708812034

Comet physical (GM= km^3/s^2; RAD= km):
  GM= n.a.                RAD= n.a.
  M1=  11.3     M2=  14.9     k1=  8.5    k2=  5.      PHCOF=  .030

Comet non-gravitational force model (AMRAT=m^2/kg;A1-A3=au/d^2;DT=days;R0=au):
  AMRAT=  0.                                      DT=  0.
  A1= 4.352356493473E-10  A2= 7.729122042656E-10  A3= 0.
Standard model:
  ALN=  .1112620426   NK=  4.6142   NM=  2.15     NN=  5.093    R0=  2.808

COMET comments 
1: soln ref.= JPL#10, data arc: 1827-06-21 to 2014-04-04
2: k1=8.5, k2=5., phase coef.=0.03;
*******************************************************************************


*******************************************************************************
Ephemeris / MAIL_REQUEST Tue Feb 23 16:21:09 2021 Pasadena, USA  / Horizons
*******************************************************************************
Target body name: 273P/Pons-Gambart               {source: JPL#10}
Center body name: Sun (10)                        {source: DE431}
Center-site name: BODY CENTER
*******************************************************************************
Start time      : A.D. 1990-Jan-01 00:00:00.0000 TDB
Stop  time      : A.D. 2020-Dec-31 00:00:00.0000 TDB
Step-size       : 10080 minutes
*******************************************************************************
Center geodetic : 0.00000000,0.00000000,0.0000000 {E-lon(deg),Lat(deg),Alt(km)}
Center cylindric: 0.00000000,0.00000000,0.0000000 {E-lon(deg),Dxy(km),Dz(km)}
Center radii    : 696000.0 x 696000.0 x 696000.0 k{Equator, meridian, pole}    
Small perturbers: Yes                             {source: SB431-N16}
Output units    : AU-D
Output type     : GEOMETRIC cartesian states
Output format   : 6 (LT, range, and range-rate)
Reference frame : Ecliptic of J2000.0
*******************************************************************************
Initial IAU76/J2000 heliocentric ecliptic osculating elements (au, days, deg.):
 EPOCH=  2456369.5 ! 2013-Mar-18.0000000 (TDB)    RMSW= n.a.                  
  EC= .975324363735136    QR= .8101589837411138   TP= 2456281.1708812034      
  OM= 320.431171565636    W= 20.19191150127465    IN= 136.3960312451835       
 Equivalent ICRF heliocentric equatorial cartesian coordinates (au, au/d):
  X=-1.262934558795910E+00  Y=-8.211901435295721E-01  Z= 8.207522922917370E-01
 VX=-1.627086088834586E-02 VY= 4.511784032030028E-03 VZ= 7.132574439653043E-03
Comet physical (GM= km^3/s^2; RAD= km):                                        
  GM= n.a.                RAD= n.a.                                           
  M1=  11.3     M2=  14.9     k1=  8.5    k2=  5.      PHCOF=  .030           
Comet non-gravitational force model (AMRAT=m^2/kg;A1-A3=au/d^2;DT=days;R0=au): 
  AMRAT=  0.                                      DT=  0.                     
  A1= 4.352356493473E-10  A2= 7.729122042656E-10  A3= 0.                      
Standard model:                                                               
  ALN=  .1112620426   NK=  4.6142   NM=  2.15     NN=  5.093    R0=  2.808    
*******************************************************************************
           JDTDB,            Calendar Date (TDB),                     LT,                     RG,                     RR,
**************************************************************************************************************************
$$SOE
2458364.500000000, A.D. 2018-Sep-03 00:00:00.0000,  9.314444096238929E-02,  1.612746001608036E+01,  5.048932410699275E-03,
2458371.500000000, A.D. 2018-Sep-10 00:00:00.0000,  9.334841803356035E-02,  1.616277755114224E+01,  5.041796736717479E-03,
2458378.500000000, A.D. 2018-Sep-17 00:00:00.0000,  9.355210721722455E-02,  1.619804524002750E+01,  5.034690859977204E-03,
2458385.500000000, A.D. 2018-Sep-24 00:00:00.0000,  9.375550973361679E-02,  1.623326329401325E+01,  5.027615300365552E-03,
2458392.500000000, A.D. 2018-Oct-01 00:00:00.0000,  9.395862679851948E-02,  1.626843192360569E+01,  5.020569466821778E-03,
2458399.500000000, A.D. 2018-Oct-08 00:00:00.0000,  9.416145959667788E-02,  1.630355133393711E+01,  5.013552517808564E-03,
2458406.500000000, A.D. 2018-Oct-15 00:00:00.0000,  9.436400928014925E-02,  1.633862172448005E+01,  5.006563698442868E-03,
2458413.500000000, A.D. 2018-Oct-22 00:00:00.0000,  9.456627697319947E-02,  1.637364328989510E+01,  4.999602388888936E-03,
2458420.500000000, A.D. 2018-Oct-29 00:00:00.0000,  9.476826377761528E-02,  1.640861622095072E+01,  4.992668093975314E-03,
2458427.500000000, A.D. 2018-Nov-05 00:00:00.0000,  9.496997077726181E-02,  1.644354070531234E+01,  4.985760414981773E-03,
2458434.500000000, A.D. 2018-Nov-12 00:00:00.0000,  9.517139904055216E-02,  1.647841692796996E+01,  4.978878961232499E-03,
2458441.500000000, A.D. 2018-Nov-19 00:00:00.0000,  9.537254961617322E-02,  1.651324507049807E+01,  4.972023079349335E-03,
2458448.500000000, A.D. 2018-Nov-26 00:00:00.0000,  9.557342351345907E-02,  1.654802530765748E+01,  4.965191432618895E-03,
2458455.500000000, A.D. 2018-Dec-03 00:00:00.0000,  9.577402168242700E-02,  1.658275780393856E+01,  4.958382767523301E-03,
2458462.500000000, A.D. 2018-Dec-10 00:00:00.0000,  9.597434506492414E-02,  1.661744272241708E+01,  4.951598139942720E-03,
2458469.500000000, A.D. 2018-Dec-17 00:00:00.0000,  9.617439467544818E-02,  1.665208023874789E+01,  4.944839534563070E-03,
2458476.500000000, A.D. 2018-Dec-24 00:00:00.0000,  9.637417158544707E-02,  1.668667053844645E+01,  4.938107714765635E-03,
2458483.500000000, A.D. 2018-Dec-31 00:00:00.0000,  9.657367688046081E-02,  1.672121380946816E+01,  4.931402773008278E-03,
2458490.500000000, A.D. 2019-Jan-07 00:00:00.0000,  9.677291164796427E-02,  1.675571024010349E+01,  4.924724764114450E-03,
2458497.500000000, A.D. 2019-Jan-14 00:00:00.0000,  9.697187697954081E-02,  1.679016001935422E+01,  4.918073838473496E-03,
2458504.500000000, A.D. 2019-Jan-21 00:00:00.0000,  9.717057397448063E-02,  1.682456333755654E+01,  4.911450219955483E-03,
2458511.500000000, A.D. 2019-Jan-28 00:00:00.0000,  9.736900374183581E-02,  1.685892038673689E+01,  4.904854158826597E-03,
2458518.500000000, A.D. 2019-Feb-04 00:00:00.0000,  9.756716740020402E-02,  1.689323136057444E+01,  4.898285860545639E-03,
2458525.500000000, A.D. 2019-Feb-11 00:00:00.0000,  9.776506607303320E-02,  1.692749645358817E+01,  4.891745315619404E-03,
2458532.500000000, A.D. 2019-Feb-18 00:00:00.0000,  9.796270087274676E-02,  1.696171585838822E+01,  4.885231903966217E-03,
2458539.500000000, A.D. 2019-Feb-25 00:00:00.0000,  9.816007286909534E-02,  1.699588976019618E+01,  4.878744214565319E-03,
2458546.500000000, A.D. 2019-Mar-04 00:00:00.0000,  9.835718308507374E-02,  1.703001833613810E+01,  4.872281803971313E-03,
2458553.500000000, A.D. 2019-Mar-11 00:00:00.0000,  9.855403257321499E-02,  1.706410176845443E+01,  4.865846357938131E-03,
2458560.500000000, A.D. 2019-Mar-18 00:00:00.0000,  9.875062245265318E-02,  1.709814025091722E+01,  4.859439050468537E-03,
2458567.500000000, A.D. 2019-Mar-25 00:00:00.0000,  9.894695386141764E-02,  1.713213398057017E+01,  4.853059764772657E-03,
2458574.500000000, A.D. 2019-Apr-01 00:00:00.0000,  9.914302792190702E-02,  1.716608315175054E+01,  4.846707962228546E-03,
2458581.500000000, A.D. 2019-Apr-08 00:00:00.0000,  9.933884573376441E-02,  1.719998795485566E+01,  4.840383081596613E-03,
2458588.500000000, A.D. 2019-Apr-15 00:00:00.0000,  9.953440837473837E-02,  1.723384857649190E+01,  4.834084601562520E-03,
2458595.500000000, A.D. 2019-Apr-22 00:00:00.0000,  9.972971690216850E-02,  1.726766519973194E+01,  4.827812030862010E-03,
2458602.500000000, A.D. 2019-Apr-29 00:00:00.0000,  9.992477235375531E-02,  1.730143800424805E+01,  4.821564883067303E-03,
2458609.500000000, A.D. 2019-May-06 00:00:00.0000,  1.001195757465715E-01,  1.733516716614090E+01,  4.815342603421921E-03,
2458616.500000000, A.D. 2019-May-13 00:00:00.0000,  1.003141280703995E-01,  1.736885285678602E+01,  4.809144336340818E-03,
2458623.500000000, A.D. 2019-May-20 00:00:00.0000,  1.005084302670109E-01,  1.740249523924611E+01,  4.802968502787283E-03,
2458630.500000000, A.D. 2019-May-27 00:00:00.0000,  1.007024832041644E-01,  1.743609446376891E+01,  4.796813305123763E-03,
2458637.500000000, A.D. 2019-Jun-03 00:00:00.0000,  1.008962877125547E-01,  1.746965067418475E+01,  4.790679016374566E-03,
2458644.500000000, A.D. 2019-Jun-10 00:00:00.0000,  1.010898446703621E-01,  1.750316402254587E+01,  4.784567191069969E-03,
2458651.500000000, A.D. 2019-Jun-17 00:00:00.0000,  1.012831549983429E-01,  1.753663466827622E+01,  4.778478234311515E-03,
2458658.500000000, A.D. 2019-Jun-24 00:00:00.0000,  1.014762196143649E-01,  1.757006277029976E+01,  4.772411766922494E-03,
2458665.500000000, A.D. 2019-Jul-01 00:00:00.0000,  1.016690394185803E-01,  1.760344848447296E+01,  4.766367359160045E-03,
